{"epoch":1784799577,"count":18318,"objects":[{"id":"32060","name":"WORLDVIEW 1","type":"PAYLOAD","l1":"1 32060U 07041A   26203.67168651  .00006150  00000-0  25214-3 0  9995","l2":"2 32060  97.3901 322.9209 0002248 177.8116 182.3132 15.24617597 48285"},{"id":"35946","name":"WORLDVIEW 2","type":"PAYLOAD","l1":"1 35946U 09055A   26203.93091341  .00000067  00000-0  36600-4 0  9991","l2":"2 35946  98.4750 276.8937 0005539 111.4753 248.7025 14.37908480880781"},{"id":"40115","name":"WORLDVIEW 3","type":"PAYLOAD","l1":"1 40115U 14048A   26203.94566273  .00000633  00000-0  80348-4 0  9992","l2":"2 40115  97.8550 278.2828 0001848 143.8996 216.2344 14.85072929647214"}]}